CCSDS_OMM_VERS = 2.0
CREATION_DATE  = 
ORIGINATOR     = 

OBJECT_NAME    = SL-4 R/B
OBJECT_ID      = 2014-021B
CENTER_NAME    = EARTH
REF_FRAME      = TEME
TIME_SYSTEM    = UTC
MEAN_ELEMENT_THEORY = SGP/SGP4

EPOCH          = 2026-02-07T11:48:50.514912
MEAN_MOTION    = 15.38223064
ECCENTRICITY   = .0098995
INCLINATION    = 51.6066
RA_OF_ASC_NODE = 124.4797
ARG_OF_PERICENTER = 352.9374
MEAN_ANOMALY   = 7.0209

EPHEMERIS_TYPE = 0
CLASSIFICATION_TYPE = U
NORAD_CAT_ID   = 39679
ELEMENT_SET_NO = 999
REV_AT_EPOCH   = 65162
BSTAR          = .35449E-3
MEAN_MOTION_DOT = .15637E-3
MEAN_MOTION_DDOT = 0

CCSDS_OMM_VERS = 2.0
CREATION_DATE  = 
ORIGINATOR     = 

OBJECT_NAME    = ALOS-2
OBJECT_ID      = 2014-029A
CENTER_NAME    = EARTH
REF_FRAME      = TEME
TIME_SYSTEM    = UTC
MEAN_ELEMENT_THEORY = SGP/SGP4

EPOCH          = 2026-02-07T13:18:37.904832
MEAN_MOTION    = 14.79493258
ECCENTRICITY   = .0001404
INCLINATION    = 97.9216
RA_OF_ASC_NODE = 137.5858
ARG_OF_PERICENTER = 96.1286
MEAN_ANOMALY   = 264.0086

EPHEMERIS_TYPE = 0
CLASSIFICATION_TYPE = U
NORAD_CAT_ID   = 39766
ELEMENT_SET_NO = 999
REV_AT_EPOCH   = 63241
BSTAR          = .10451E-3
MEAN_MOTION_DOT = .73E-5
MEAN_MOTION_DDOT = 0

CCSDS_OMM_VERS = 2.0
CREATION_DATE  = 
ORIGINATOR     = 

OBJECT_NAME    = YAOGAN-29
OBJECT_ID      = 2015-069A
CENTER_NAME    = EARTH
REF_FRAME      = TEME
TIME_SYSTEM    = UTC
MEAN_ELEMENT_THEORY = SGP/SGP4

EPOCH          = 2026-02-07T13:35:53.543616
MEAN_MOTION    = 14.82962578
ECCENTRICITY   = .0002896
INCLINATION    = 98.0173
RA_OF_ASC_NODE = 66.9109
ARG_OF_PERICENTER = 85.9196
MEAN_ANOMALY   = 274.2348

EPHEMERIS_TYPE = 0
CLASSIFICATION_TYPE = U
NORAD_CAT_ID   = 41038
ELEMENT_SET_NO = 999
REV_AT_EPOCH   = 55141
BSTAR          = .15572E-3
MEAN_MOTION_DOT = .121E-4
MEAN_MOTION_DDOT = 0

CCSDS_OMM_VERS = 2.0
CREATION_DATE  = 
ORIGINATOR     = 

OBJECT_NAME    = ASTRO-H (HITOMI)
OBJECT_ID      = 2016-012A
CENTER_NAME    = EARTH
REF_FRAME      = TEME
TIME_SYSTEM    = UTC
MEAN_ELEMENT_THEORY = SGP/SGP4

EPOCH          = 2026-02-07T11:44:10.357728
MEAN_MOTION    = 15.09784801
ECCENTRICITY   = .0009835
INCLINATION    = 30.9981
RA_OF_ASC_NODE = 191.4049
ARG_OF_PERICENTER = 28.9313
MEAN_ANOMALY   = 331.1869

EPHEMERIS_TYPE = 0
CLASSIFICATION_TYPE = U
NORAD_CAT_ID   = 41337
ELEMENT_SET_NO = 999
REV_AT_EPOCH   = 54766
BSTAR          = .26817E-3
MEAN_MOTION_DOT = .4537E-4
MEAN_MOTION_DDOT = 0

CCSDS_OMM_VERS = 2.0
CREATION_DATE  = 
ORIGINATOR     = 

OBJECT_NAME    = HXMT (HUIYAN)
OBJECT_ID      = 2017-034A
CENTER_NAME    = EARTH
REF_FRAME      = TEME
TIME_SYSTEM    = UTC
MEAN_ELEMENT_THEORY = SGP/SGP4

EPOCH          = 2026-02-07T11:52:56.906112
MEAN_MOTION    = 15.17062137
ECCENTRICITY   = .0030972
INCLINATION    = 43.0133
RA_OF_ASC_NODE = 184.4896
ARG_OF_PERICENTER = 41.8181
MEAN_ANOMALY   = 318.5026

EPHEMERIS_TYPE = 0
CLASSIFICATION_TYPE = U
NORAD_CAT_ID   = 42758
ELEMENT_SET_NO = 999
REV_AT_EPOCH   = 47795
BSTAR          = .36401E-3
MEAN_MOTION_DOT = .7191E-4
MEAN_MOTION_DDOT = 0

CCSDS_OMM_VERS = 2.0
CREATION_DATE  = 
ORIGINATOR     = 

OBJECT_NAME    = CZ-2C R/B
OBJECT_ID      = 2018-054D
CENTER_NAME    = EARTH
REF_FRAME      = TEME
TIME_SYSTEM    = UTC
MEAN_ELEMENT_THEORY = SGP/SGP4

EPOCH          = 2026-02-07T12:12:41.921856
MEAN_MOTION    = 15.95408576
ECCENTRICITY   = .0013008
INCLINATION    = 35.1289
RA_OF_ASC_NODE = 151.0786
ARG_OF_PERICENTER = 10.3613
MEAN_ANOMALY   = 349.7393

EPHEMERIS_TYPE = 0
CLASSIFICATION_TYPE = U
NORAD_CAT_ID   = 43521
ELEMENT_SET_NO = 999
REV_AT_EPOCH   = 42405
BSTAR          = .87261E-3
MEAN_MOTION_DOT = .366239E-2
MEAN_MOTION_DDOT = .53126E-4

CCSDS_OMM_VERS = 2.0
CREATION_DATE  = 
ORIGINATOR     = 

OBJECT_NAME    = SAOCOM 1A
OBJECT_ID      = 2018-076A
CENTER_NAME    = EARTH
REF_FRAME      = TEME
TIME_SYSTEM    = UTC
MEAN_ELEMENT_THEORY = SGP/SGP4

EPOCH          = 2026-02-07T12:22:40.848384
MEAN_MOTION    = 14.82155923
ECCENTRICITY   = .0001384
INCLINATION    = 97.8868
RA_OF_ASC_NODE = 227.1163
ARG_OF_PERICENTER = 84.6768
MEAN_ANOMALY   = 275.4603

EPHEMERIS_TYPE = 0
CLASSIFICATION_TYPE = U
NORAD_CAT_ID   = 43641
ELEMENT_SET_NO = 999
REV_AT_EPOCH   = 39689
BSTAR          = .22635E-4
MEAN_MOTION_DOT = .128E-5
MEAN_MOTION_DDOT = 0

CCSDS_OMM_VERS = 2.0
CREATION_DATE  = 
ORIGINATOR     = 

OBJECT_NAME    = H-2A R/B
OBJECT_ID      = 2018-084L
CENTER_NAME    = EARTH
REF_FRAME      = TEME
TIME_SYSTEM    = UTC
MEAN_ELEMENT_THEORY = SGP/SGP4

EPOCH          = 2026-02-07T12:46:08.747616
MEAN_MOTION    = 15.40024300
ECCENTRICITY   = .0026303
INCLINATION    = 98.8762
RA_OF_ASC_NODE = 249.5058
ARG_OF_PERICENTER = 126.7445
MEAN_ANOMALY   = 233.6217

EPHEMERIS_TYPE = 0
CLASSIFICATION_TYPE = U
NORAD_CAT_ID   = 43682
ELEMENT_SET_NO = 999
REV_AT_EPOCH   = 40113
BSTAR          = .70325E-3
MEAN_MOTION_DOT = .28385E-3
MEAN_MOTION_DDOT = 0

CCSDS_OMM_VERS = 2.0
CREATION_DATE  = 
ORIGINATOR     = 

OBJECT_NAME    = SAOCOM 1B
OBJECT_ID      = 2020-059A
CENTER_NAME    = EARTH
REF_FRAME      = TEME
TIME_SYSTEM    = UTC
MEAN_ELEMENT_THEORY = SGP/SGP4

EPOCH          = 2026-02-07T06:38:48.872256
MEAN_MOTION    = 14.82163776
ECCENTRICITY   = .00013519
INCLINATION    = 97.8864
RA_OF_ASC_NODE = 225.9790
ARG_OF_PERICENTER = 85.4927
MEAN_ANOMALY   = 274.6441

EPHEMERIS_TYPE = 0
CLASSIFICATION_TYPE = U
NORAD_CAT_ID   = 46265
ELEMENT_SET_NO = 999
REV_AT_EPOCH   = 29424
BSTAR          = .12255354E-3
MEAN_MOTION_DOT = .924E-5
MEAN_MOTION_DDOT = 0

CCSDS_OMM_VERS = 2.0
CREATION_DATE  = 
ORIGINATOR     = 

OBJECT_NAME    = CSS (TIANHE)
OBJECT_ID      = 2021-035A
CENTER_NAME    = EARTH
REF_FRAME      = TEME
TIME_SYSTEM    = UTC
MEAN_ELEMENT_THEORY = SGP/SGP4

EPOCH          = 2026-02-07T08:52:57.759744
MEAN_MOTION    = 15.59318583
ECCENTRICITY   = .0005155
INCLINATION    = 41.4682
RA_OF_ASC_NODE = 32.4562
ARG_OF_PERICENTER = 20.8908
MEAN_ANOMALY   = 339.2140

EPHEMERIS_TYPE = 0
CLASSIFICATION_TYPE = U
NORAD_CAT_ID   = 48274
ELEMENT_SET_NO = 999
REV_AT_EPOCH   = 27287
BSTAR          = .31398E-3
MEAN_MOTION_DOT = .25203E-3
MEAN_MOTION_DDOT = 0

CCSDS_OMM_VERS = 2.0
CREATION_DATE  = 
ORIGINATOR     = 

OBJECT_NAME    = COSMOS 2550
OBJECT_ID      = 2021-056A
CENTER_NAME    = EARTH
REF_FRAME      = TEME
TIME_SYSTEM    = UTC
MEAN_ELEMENT_THEORY = SGP/SGP4

EPOCH          = 2026-02-07T10:57:33.500736
MEAN_MOTION    = 15.33837176
ECCENTRICITY   = .0008384
INCLINATION    = 67.1449
RA_OF_ASC_NODE = 132.3819
ARG_OF_PERICENTER = 269.6334
MEAN_ANOMALY   = 90.3859

EPHEMERIS_TYPE = 0
CLASSIFICATION_TYPE = U
NORAD_CAT_ID   = 48865
ELEMENT_SET_NO = 999
REV_AT_EPOCH   = 25882
BSTAR          = .13675E-3
MEAN_MOTION_DOT = .4311E-4
MEAN_MOTION_DDOT = 0

CCSDS_OMM_VERS = 2.0
CREATION_DATE  = 
ORIGINATOR     = 

OBJECT_NAME    = CZ-2C R/B
OBJECT_ID      = 2022-058K
CENTER_NAME    = EARTH
REF_FRAME      = TEME
TIME_SYSTEM    = UTC
MEAN_ELEMENT_THEORY = SGP/SGP4

EPOCH          = 2026-02-07T05:00:48.629952
MEAN_MOTION    = 15.52100302
ECCENTRICITY   = .00423363
INCLINATION    = 50.1885
RA_OF_ASC_NODE = 114.8234
ARG_OF_PERICENTER = 71.3421
MEAN_ANOMALY   = 289.2139

EPHEMERIS_TYPE = 0
CLASSIFICATION_TYPE = U
NORAD_CAT_ID   = 52794
ELEMENT_SET_NO = 999
REV_AT_EPOCH   = 20539
BSTAR          = .59165059E-3
MEAN_MOTION_DOT = .3753E-3
MEAN_MOTION_DDOT = 0

