SL-4 R/B                
1 39679U 14021B   26038.49225133  .00015637  00000+0  35449-3 0  9999
2 39679  51.6066 124.4797 0098995 352.9374   7.0209 15.38223064651629
ALOS-2                  
1 39766U 14029A   26038.55460538  .00000730  00000+0  10451-3 0  9995
2 39766  97.9216 137.5858 0001404  96.1286 264.0086 14.79493258632419
YAOGAN-29               
1 41038U 15069A   26038.56659194  .00001210  00000+0  15572-3 0  9997
2 41038  98.0173  66.9109 0002896  85.9196 274.2348 14.82962578551418
ASTRO-H (HITOMI)        
1 41337U 16012A   26038.48900877  .00004537  00000+0  26817-3 0  9995
2 41337  30.9981 191.4049 0009835  28.9313 331.1869 15.09784801547661
HXMT (HUIYAN)           
1 42758U 17034A   26038.49510308  .00007191  00000+0  36401-3 0  9994
2 42758  43.0133 184.4896 0030972  41.8181 318.5026 15.17062137477956
CZ-2C R/B               
1 43521U 18054D   26038.50881854  .00366239  53126-4  87261-3 0  9998
2 43521  35.1289 151.0786 0013008  10.3613 349.7393 15.95408576424052
SAOCOM 1A               
1 43641U 18076A   26038.51575056  .00000128  00000+0  22635-4 0  9995
2 43641  97.8868 227.1163 0001384  84.6768 275.4603 14.82155923396895
H-2A R/B                
1 43682U 18084L   26038.53204569  .00028385  00000+0  70325-3 0  9992
2 43682  98.8762 249.5058 0026303 126.7445 233.6217 15.40024300401133
SAOCOM 1B               
1 46265U 20059A   26038.27695454  .00000924  00000+0  12255-3 0  9992
2 46265  97.8864 225.9790 0001351  85.4927 274.6441 14.82163776294240
CSS (TIANHE)            
1 48274U 21035A   26038.37011296  .00025203  00000+0  31398-3 0  9992
2 48274  41.4682  32.4562 0005155  20.8908 339.2140 15.59318583272873
COSMOS 2550             
1 48865U 21056A   26038.45663774  .00004311  00000+0  13675-3 0  9999
2 48865  67.1449 132.3819 0008384 269.6334  90.3859 15.33837176258820
CZ-2C R/B               
1 52794U 22058K   26038.20889618  .00037530  00000+0  59165-3 0  9991
2 52794  50.1885 114.8234 0042336  71.3421 289.2139 15.52100302205397
